NORAD_CAT_ID,OBJECT_NAME,OBJECT_TYPE,EPOCH,MEAN_MOTION,ECCENTRICITY,INCLINATION,RA_OF_ASC_NODE,ARG_OF_PERICENTER,MEAN_ANOMALY,BSTAR,MEAN_MOTION_DOT,MEAN_MOTION_DDOT,TLE_LINE0,TLE_LINE1,TLE_LINE2,SEMIMAJOR_AXIS,PERIOD,APOGEE,PERIGEE,DECAYED
52636.0,STARLINK-3967,PAYLOAD,2023-02-04 12:14:28,15.088497,0.0001181,53.2161,298.2035,137.1954,222.9131,-0.00021434,-3.698e-05,0.0,0 STARLINK-3967,1 52636U 22052AQ  23035.51005317 -.00003698  00000-0 -21434-3 0  9993,2 52636  53.2161 298.2035 0001181 137.1954 222.9131 15.08849700 40525,6917.851,95.437,540.533,538.899,0.0
52636.0,STARLINK-3967,PAYLOAD,2023-02-04 18:36:01,15.08842465,0.0001037,53.2159,297.0175,106.5623,253.5484,0.00016508,2.341e-05,0.0,0 STARLINK-3967,1 52636U 22052AQ  23035.77502252  .00002341  00000-0  16508-3 0  9999,2 52636  53.2159 297.0175 0001037 106.5623 253.5484 15.08842465 40945,6917.873,95.437,540.455,539.02,0.0
52636.0,STARLINK-3967,PAYLOAD,2023-02-04 21:46:48,15.08844527,0.0001012,53.2157,296.423,108.8888,251.2213,0.00023922,3.522e-05,0.0,0 STARLINK-3967,1 52636U 22052AQ  23035.90750134  .00003522  00000-0  23922-3 0  9998,2 52636  53.2157 296.4230 0001012 108.8888 251.2213 15.08844527 40585,6917.867,95.437,540.432,539.031,0.0
52636.0,STARLINK-3967,PAYLOAD,2023-02-05 13:40:39,15.08837801,0.0001093,53.2153,293.45,84.994,275.1177,0.00018151,2.602e-05,0.0,0 STARLINK-3967,1 52636U 22052AQ  23036.56990725  .00002602  00000-0  18151-3 0  9999,2 52636  53.2153 293.4500 0001093  84.9940 275.1177 15.08837801 40682,6917.887,95.438,540.508,538.996,0.0
52636.0,STARLINK-3967,PAYLOAD,2023-02-05 18:26:49,15.08831275,0.0001154,53.2162,292.5594,93.975,266.1374,4.1349e-05,3.7e-06,0.0,0 STARLINK-3967,1 52636U 22052AQ  23036.76863056  .00000370  00000-0  41349-4 0  9993,2 52636  53.2162 292.5594 0001154  93.9750 266.1374 15.08831275 41096,6917.907,95.438,540.57,538.974,0.0
52636.0,STARLINK-3967,PAYLOAD,2023-02-05 21:37:35,15.08833023,0.0001207,53.2161,291.9634,101.0064,259.1064,5.4944e-05,5.87e-06,0.0,0 STARLINK-3967,1 52636U 22052AQ  23036.90111065  .00000587  00000-0  54944-4 0  9990,2 52636  53.2161 291.9634 0001207 101.0064 259.1064 15.08833023 40732,6917.902,95.438,540.602,538.932,0.0
52636.0,STARLINK-3967,PAYLOAD,2023-02-06 11:56:04,15.08842782,0.0001206,53.2157,289.2884,82.1522,277.9607,0.00018902,2.722e-05,0.0,0 STARLINK-3967,1 52636U 22052AQ  23037.49726951  .00002722  00000-0  18902-3 0  9997,2 52636  53.2157 289.2884 0001206  82.1522 277.9607 15.08842782 40824,6917.872,95.437,540.571,538.903,0.0
52636.0,STARLINK-3967,PAYLOAD,2023-02-06 18:17:36,15.08848482,0.0001389,53.2152,288.0989,96.9435,263.1715,0.00036033,5.453e-05,0.0,0 STARLINK-3967,1 52636U 22052AQ  23037.76222823  .00005453  00000-0  36033-3 0  9995,2 52636  53.2152 288.0989 0001389  96.9435 263.1715 15.08848482 41247,6917.854,95.437,540.68,538.759,0.0
52636.0,STARLINK-3967,PAYLOAD,2023-02-06 21:28:22,15.08851668,0.0001323,53.2151,287.5042,91.9506,268.1638,0.00054784,8.444e-05,0.0,0 STARLINK-3967,1 52636U 22052AQ  23037.89470784  .00008444  00000-0  54784-3 0  9996,2 52636  53.2151 287.5042 0001323  91.9506 268.1638 15.08851668 40880,6917.845,95.437,540.625,538.794,0.0
52636.0,STARLINK-3967,PAYLOAD,2023-02-07 03:49:54,15.0887466,0.0001316,53.2149,286.3141,91.8508,268.2635,0.0014786,0.00023345,0.0,0 STARLINK-3967,1 52636U 22052AQ  23038.15966288  .00023345  00000-0  14786-2 0  9999,2 52636  53.2149 286.3141 0001316  91.8508 268.2635 15.08874660 41300,6917.774,95.435,540.55,538.729,0.0
52636.0,STARLINK-3967,PAYLOAD,2023-02-07 19:43:46,15.08847687,0.0001405,53.2149,283.3408,94.6993,265.416,0.00031341,4.705e-05,0.0,0 STARLINK-3967,1 52636U 22052AQ  23038.82206689  .00004705  00000-0  31341-3 0  9991,2 52636  53.2149 283.3408 0001405  94.6993 265.4160 15.08847687 41403,6917.857,95.437,540.694,538.75,0.0
52636.0,STARLINK-3967,PAYLOAD,2023-02-07 21:19:09,15.08847726,0.0001531,53.2151,283.0437,87.0361,273.0807,0.00035789,5.414e-05,0.0,0 STARLINK-3967,1 52636U 22052AQ  23038.88830736  .00005414  00000-0  35789-3 0  9991,2 52636  53.2151 283.0437 0001531  87.0361 273.0807 15.08847726 41036,6917.857,95.437,540.781,538.663,0.0
52636.0,STARLINK-3967,PAYLOAD,2023-02-07 22:54:32,15.08854521,0.0001309,53.215,282.7453,74.3224,285.7913,0.00073203,0.00011386,0.0,0 STARLINK-3967,1 52636U 22052AQ  23038.95454665  .00011386  00000-0  73203-3 0  9990,2 52636  53.2150 282.7453 0001309  74.3224 285.7913 15.08854521 41049,6917.836,95.437,540.607,538.795,0.0
52636.0,STARLINK-3967,PAYLOAD,2023-02-08 19:34:34,15.08852957,0.0001108,53.2148,278.8796,88.9411,271.1708,0.0019794,0.00031366,0.0,0 STARLINK-3967,1 52636U 22052AQ  23039.81567296  .00031366  00000-0  19794-2 0  9995,2 52636  53.2148 278.8796 0001108  88.9411 271.1708 15.08852957 41556,6917.841,95.437,540.472,538.939,0.0
52636.0,STARLINK-3967,PAYLOAD,2023-02-08 22:45:20,15.08849244,0.0001001,53.2148,278.2848,84.1813,275.9293,0.0021435,0.00033999,0.0,0 STARLINK-3967,1 52636U 22052AQ  23039.94815314  .00033999  00000-0  21435-2 0  9995,2 52636  53.2148 278.2848 0001001  84.1813 275.9293 15.08849244 41190,6917.852,95.437,540.41,539.025,0.0
52636.0,STARLINK-3967,PAYLOAD,2023-02-09 00:20:43,15.08854294,0.0001079,53.2152,277.9867,81.236,278.8754,0.0023758,0.0003774,0.0,0 STARLINK-3967,1 52636U 22052AQ  23040.01439290  .00037740  00000-0  23758-2 0  9998,2 52636  53.2152 277.9867 0001079  81.2360 278.8754 15.08854294 41209,6917.837,95.437,540.448,538.955,0.0
52636.0,STARLINK-3967,PAYLOAD,2023-02-09 22:36:07,15.08856229,0.0001047,53.2149,273.8242,101.2256,258.8854,0.0014215,0.00022418,0.0,0 STARLINK-3967,1 52636U 22052AQ  23040.94175364  .00022418  00000-0  14215-2 0  9993,2 52636  53.2149 273.8242 0001047 101.2256 258.8854 15.08856229 41725,6917.831,95.437,540.42,538.971,0.0
52636.0,STARLINK-3967,PAYLOAD,2023-02-10 01:46:53,15.08861592,0.0001113,53.2146,273.2282,91.2935,268.8185,0.0016369,0.00025875,0.0,0 STARLINK-3967,1 52636U 22052AQ  23041.07423263  .00025875  00000-0  16369-2 0  9994,2 52636  53.2146 273.2282 0001113  91.2935 268.8185 15.08861592 41363,6917.814,95.436,540.449,538.909,0.0
52636.0,STARLINK-3967,PAYLOAD,2023-02-10 20:51:31,15.08849178,0.0001008,53.2146,269.6575,99.1088,261.0018,0.00089485,0.00013986,0.0,0 STARLINK-3967,1 52636U 22052AQ  23041.86911199  .00013986  00000-0  89485-3 0  9991,2 52636  53.2146 269.6575 0001008  99.1088 261.0018 15.08849178 41867,6917.852,95.437,540.415,539.02,0.0
52636.0,STARLINK-3967,PAYLOAD,2023-02-10 22:26:54,15.08846667,0.0001218,53.2147,269.3607,79.4877,280.6252,0.00073119,0.0001137,0.0,0 STARLINK-3967,1 52636U 22052AQ  23041.93535346  .00011370  00000-0  73119-3 0  9997,2 52636  53.2147 269.3607 0001218  79.4877 280.6252 15.08846667 41497,6917.86,95.437,540.568,538.882,0.0
52636.0,STARLINK-3967,PAYLOAD,2023-02-11 23:53:04,15.08837776,9.17e-05,53.2149,264.6037,110.5674,249.5416,0.00061164,9.459e-05,0.0,0 STARLINK-3967,1 52636U 22052AQ  23042.99519647  .00009459  00000-0  61164-3 0  9992,2 52636  53.2149 264.6037 0000917 110.5674 249.5416 15.08837776 42039,6917.887,95.438,540.387,539.118,0.0
52636.0,STARLINK-3967,PAYLOAD,2023-02-12 07:50:01,15.08833663,0.000135,53.2148,263.1164,80.6683,279.4462,0.00030356,4.546e-05,0.0,0 STARLINK-3967,1 52636U 22052AQ  23043.32640173  .00004546  00000-0  30356-3 0  9990,2 52636  53.2148 263.1164 0001350  80.6683 279.4462 15.08833663 42081,6917.9,95.438,540.699,538.831,0.0
52636.0,STARLINK-3967,PAYLOAD,2023-02-13 07:40:48,15.08842243,0.0001405,53.2155,258.6557,76.3174,283.7974,0.00024194,3.565e-05,0.0,0 STARLINK-3967,1 52636U 22052AQ  23044.32000184  .00003565  00000-0  24194-3 0  9996,2 52636  53.2155 258.6557 0001405  76.3174 283.7974 15.08842243 41856,6917.874,95.437,540.71,538.767,0.0
52636.0,STARLINK-3967,PAYLOAD,2023-02-13 20:23:53,15.08846553,0.0001306,53.2155,256.2774,81.3261,278.7879,0.00025362,3.751e-05,0.0,0 STARLINK-3967,1 52636U 22052AQ  23044.84992129  .00003751  00000-0  25362-3 0  9997,2 52636  53.2155 256.2774 0001306  81.3261 278.7879 15.08846553 42312,6917.86,95.437,540.629,538.822,0.0
52636.0,STARLINK-3967,PAYLOAD,2023-02-14 13:53:07,15.08843415,0.0001355,53.2133,253.0088,72.5129,287.6011,0.00020164,2.923e-05,0.0,0 STARLINK-3967,1 52636U 22052AQ  23045.57856219  .00002923  00000-0  20164-3 0  9992,2 52636  53.2133 253.0088 0001355  72.5129 287.6011 15.08843415 42041,6917.87,95.437,540.672,538.798,0.0
52636.0,STARLINK-3967,PAYLOAD,2023-02-14 20:14:40,15.0884523,0.0001108,53.2144,251.8176,87.1724,272.9394,0.00019075,2.75e-05,0.0,0 STARLINK-3967,1 52636U 22052AQ  23045.84352024  .00002750  00000-0  19075-3 0  9994,2 52636  53.2144 251.8176 0001108  87.1724 272.9394 15.08845230 42460,6917.864,95.437,540.496,538.963,0.0
52636.0,STARLINK-3967,PAYLOAD,2023-02-15 13:43:54,15.08844024,0.000104,53.215,248.5468,80.5077,279.6032,9.4593e-05,1.218e-05,0.0,0 STARLINK-3967,1 52636U 22052AQ  23046.57215942  .00001218  00000-0  94593-4 0  9999,2 52636  53.2150 248.5468 0001040  80.5077 279.6032 15.08844024 42190,6917.868,95.437,540.453,539.014,0.0
52636.0,STARLINK-3967,PAYLOAD,2023-02-15 20:05:26,15.08846995,0.0001136,53.2135,247.3571,77.7217,282.3902,0.00012974,1.778e-05,0.0,0 STARLINK-3967,1 52636U 22052AQ  23046.83711742  .00001778  00000-0  12974-3 0  9990,2 52636  53.2135 247.3571 0001136  77.7217 282.3902 15.08846995 42236,6917.859,95.437,540.51,538.938,0.0
52636.0,STARLINK-3967,PAYLOAD,2023-02-16 13:34:41,15.08840963,9.84e-05,53.2138,244.0857,75.336,284.7741,0.0001014,1.326e-05,0.0,0 STARLINK-3967,1 52636U 22052AQ  23047.56576079  .00001326  00000-0  10140-3 0  9995,2 52636  53.2138 244.0857 0000984  75.3360 284.7741 15.08840963 42341,6917.877,95.437,540.423,539.062,0.0
52636.0,STARLINK-3967,PAYLOAD,2023-02-16 19:56:13,15.08847573,9.12e-05,53.2138,242.8959,83.3189,276.7907,0.00017715,2.533e-05,0.0,0 STARLINK-3967,1 52636U 22052AQ  23047.83071491  .00002533  00000-0  17715-3 0  9999,2 52636  53.2138 242.8959 0000912  83.3189 276.7907 15.08847573 42764,6917.857,95.437,540.353,539.091,0.0
